API VERSION: 1.2
API SOURCE: NASA/JPL Horizons API



*******************************************************************************
Ephemeris / API_USER Fri Apr  3 11:29:25 2026 Pasadena, USA      / Horizons
*******************************************************************************
Target body name: Saturn (699)                    {source: sat441l}
Center body name: Earth (399)                     {source: DE441}
Center-site name: BODY CENTER
*******************************************************************************
Start time      : A.D. 2010-Sep-08 20:15:00.0000 TDB
Stop  time      : A.D. 2010-Sep-10 20:15:00.0000 TDB
Step-size       : 60 minutes
*******************************************************************************
Center geodetic : 0.0, 0.0, 0.0                   {E-lon(deg),Lat(deg),Alt(km)}
Center cylindric: 0.0, 0.0, 0.0                   {E-lon(deg),Dxy(km),Dz(km)}
Center radii    : 6378.137, 6378.137, 6356.752 km {Equator_a, b, pole_c}
Output units    : AU-D
Calendar mode   : Mixed Julian/Gregorian
Output type     : GEOMETRIC cartesian states
Output format   : 3 (position, velocity, LT, range, range-rate)
EOP file        : eop.260402.p260629
EOP coverage    : DATA-BASED 1962-JAN-20 TO 2026-APR-02. PREDICTS-> 2026-JUN-28
Reference frame : ICRF
*******************************************************************************
            JDTDB,            Calendar Date (TDB),                      X,                      Y,                      Z,                     VX,                     VY,                     VZ,                     LT,                     RG,                     RR,
**************************************************************************************************************************************************************************************************************************************************************************
$$SOE
2455449.593750000, A.D. 2010-Sep-10 02:15:00.0000, -1.045560207069915E+01, -1.004107262712131E+00, -2.559086767464509E-03, -3.177938346812728E-03, -2.045603208154147E-02, -8.779247085858165E-03,  6.066435008943381E-02,  1.050370661265654E+01,  5.121028031101779E-03,
2455449.635416667, A.D. 2010-Sep-10 03:15:00.0000, -1.045573423352227E+01, -1.004959648221272E+00, -2.924910863477845E-03, -3.165876883247531E-03, -2.045847097156912E-02, -8.780308912666809E-03,  6.066558125976191E-02,  1.050391978319075E+01,  5.111157341934319E-03,
2455449.677083333, A.D. 2010-Sep-10 04:15:00.0000, -1.045586589374951E+01, -1.005812135177765E+00, -3.290779126019031E-03, -3.153813746070891E-03, -2.046090155793380E-02, -8.781367079412126E-03,  6.066681005454812E-02,  1.050413254241264E+01,  5.101285040868661E-03,
2455449.718750000, A.D. 2010-Sep-10 05:15:00.0000, -1.045599705131130E+01, -1.006664723236067E+00, -3.656691402615131E-03, -3.141748942439817E-03, -2.046332386184876E-02, -8.782421587583267E-03,  6.066803647340545E-02,  1.050434489025520E+01,  5.091411134559885E-03,
2455449.760416667, A.D. 2010-Sep-10 06:15:00.0000, -1.045612770613830E+01, -1.007517412051493E+00, -4.022647540863596E-03, -3.129682476790712E-03, -2.046573790300900E-02, -8.783472439075492E-03,  6.066926051594806E-02,  1.050455682665162E+01,  5.081535626817383E-03,
2455449.802083333, A.D. 2010-Sep-10 07:15:00.0000, -1.045625785816132E+01, -1.008370201280133E+00, -4.388647388449093E-03, -3.117614351473700E-03, -2.046814369876168E-02, -8.784519636171209E-03,  6.067048218179082E-02,  1.050476835153522E+01,  5.071658519156049E-03,
2455449.843750000, A.D. 2010-Sep-10 08:15:00.0000, -1.045638750731121E+01, -1.009223090578750E+00, -4.754690793158677E-03, -3.105544567067582E-03, -2.047054126438117E-02, -8.785563181495776E-03,  6.067170147054868E-02,  1.050497946483932E+01,  5.061779811135249E-03,
2455449.885416667, A.D. 2010-Sep-10 09:15:00.0000, -1.045651665351885E+01, -1.010076079604715E+00, -5.120777602895359E-03, -3.093473122385355E-03, -2.047293061357976E-02, -8.786603077987442E-03,  6.067291838183635E-02,  1.050519016649722E+01,  5.051899500412602E-03,
2455449.927083333, A.D. 2010-Sep-10 10:15:00.0000, -1.045664529671497E+01, -1.010929168015938E+00, -5.486907665691003E-03, -3.081400014284222E-03, -2.047531175878535E-02, -8.787639328893565E-03,  6.067413291526754E-02,  1.050540045644203E+01,  5.042017582581023E-03,
2455449.968750000, A.D. 2010-Sep-10 11:15:00.0000, -1.045677343683019E+01, -1.011782355470823E+00, -5.853080829719492E-03, -3.069325237437741E-03, -2.047768471100423E-02, -8.788671937788312E-03,  6.067534507045485E-02,  1.050561033460669E+01,  5.032134050928246E-03,
2455450.010416667, A.D. 2010-Sep-10 12:15:00.0000, -1.045690107379482E+01, -1.012635641628191E+00, -6.219296943310906E-03, -3.057248784226727E-03, -2.048004947927991E-02, -8.789700908598186E-03,  6.067655484700884E-02,  1.050581980092374E+01,  5.022248896275592E-03,
2455450.052083333, A.D. 2010-Sep-10 13:15:00.0000, -1.045702820753879E+01, -1.013489026147186E+00, -6.585555854966575E-03, -3.045170644873720E-03, -2.048240606987451E-02, -8.790726245619242E-03,  6.067776224453753E-02,  1.050602885532534E+01,  5.012362107032062E-03,
2455450.093750000, A.D. 2010-Sep-10 14:15:00.0000, -1.045715483799165E+01, -1.014342508687139E+00, -6.951857413374459E-03, -3.033090807895478E-03, -2.048475448535440E-02, -8.791747953511463E-03,  6.067896726264604E-02,  1.050623749774310E+01,  5.002473669555242E-03,
2455450.135416667, A.D. 2010-Sep-10 15:15:00.0000, -1.045728096508237E+01, -1.015196088907397E+00, -7.318201467423739E-03, -3.021009260889578E-03, -2.048709472377008E-02, -8.792766037260466E-03,  6.068016990093587E-02,  1.050644572810804E+01,  4.992583568853334E-03,
2455450.177083333, A.D. 2010-Sep-10 16:15:00.0000, -1.045740658873946E+01, -1.016049766467121E+00, -7.684587866216818E-03, -3.008925991613625E-03, -2.048942677809587E-02, -8.793780502102654E-03,  6.068137015900497E-02,  1.050665354635053E+01,  4.982691789602986E-03,
2455450.218750000, A.D. 2010-Sep-10 17:15:00.0000, -1.045753170889093E+01, -1.016903541025069E+00, -8.051016459077740E-03, -2.996840989265922E-03, -2.049175063604816E-02, -8.794791353416346E-03,  6.068256803644763E-02,  1.050686095240032E+01,  4.972798317403897E-03,
2455450.260416667, A.D. 2010-Sep-10 18:15:00.0000, -1.045765632546438E+01, -1.017757412239382E+00, -8.417487095555178E-03, -2.984754245840036E-03, -2.049406628034343E-02, -8.795798596587110E-03,  6.068376353285492E-02,  1.050706794618663E+01,  4.962903140149361E-03,
2455450.302083333, A.D. 2010-Sep-10 19:15:00.0000, -1.045778043838718E+01, -1.018611379767387E+00, -8.783999625419883E-03, -2.972665757406436E-03, -2.049637368939591E-02, -8.796802236860000E-03,  6.068495664781542E-02,  1.050727452763820E+01,  4.953006249366881E-03,
2455450.343750000, A.D. 2010-Sep-10 20:15:00.0000, -1.045790404758661E+01, -1.019465443265443E+00, -9.150553898655652E-03, -2.960575525173953E-03, -2.049867283839817E-02, -8.797802279193931E-03,  6.068614738091625E-02,  1.050748069668356E+01,  4.943107641377105E-03,
